MEAN_MOTION;ECCENTRICITY;INCLINATION;RA_OF_ASC_NODE;ARG_OF_PERICENTER;MEAN_ANOMALY;BSTAR;MEAN_MOTION_DOT;MEAN_MOTION_DDOT;TYPE
12.62261631;9.79E-5;51.9932;343.6754;109.3693;330.5082;9.5056E-5;-8.7E-7;0;Globalstar
12.62261667;9.86E-5;51.9932;342.9233;109.6057;13.1625;0.00011754;-8.3E-7;0;Globalstar
12.622617;0.0001001;51.9931;340.7837;110.1273;327.3076;0.00012442;-8.1E-7;0;Globalstar
12.6226174;0.0001006;51.993;339.776;110.1939;31.8446;0.00015546;-7.6E-7;0;Globalstar
12.62261777;0.0001021;51.9929;337.6489;110.8949;327.1342;0.00016398;-7.4E-7;0;Globalstar
12.62261794;0.0001023;51.9928;336.6329;110.7022;44.3618;0.00017466;-7.2E-7;0;Globalstar
12.62261805;0.0001035;51.9927;335.0216;111.4231;289.3782;0.00017155;-7.3E-7;0;Globalstar
12.62261814;0.0001044;51.9927;333.9828;111.6601;40.1216;0.00018754;-7.0E-7;0;Globalstar
12.62261841;0.0001053;51.9926;332.1295;112.6232;286.1925;0.00018775;-7.0E-7;0;Globalstar
12.62261752;0.0001074;51.9924;329.2419;113.3796;276.9048;0.00011984;-8.2E-7;0;Globalstar
12.62261984;0.0001061;51.9923;327.9546;113.8878;38.235;0.00024492;-6.0E-7;0;Globalstar
12.62261921;0.0001092;51.9922;325.5922;114.5792;324.998;0.00017543;-7.2E-7;0;Globalstar
12.62261932;0.0001099;51.9922;324.8129;114.7229;48.3849;0.00017824;-7.2E-7;0;Globalstar
12.62261956;0.0001113;51.9921;322.6997;115.705;322.4979;0.00015491;-7.6E-7;0;Globalstar
12.62261994;0.0001133;51.9919;319.5641;117.0267;322.8917;0.00013205;-8.0E-7;0;Globalstar
12.62261998;0.0001132;51.9919;319.3086;117.0611;344.3423;0.00013621;-7.9E-7;0;Globalstar
12.62262036;0.0001144;51.9917;316.6719;118.0496;320.1897;0.00011179;-8.4E-7;0;Globalstar
12.62262029;0.0001146;51.9917;315.6635;118.467;25.3518;9.4286E-5;-8.7E-7;0;Globalstar
12.6226207;0.0001156;51.9915;313.2807;119.9203;341.559;9.5994E-5;-8.7E-7;0;Globalstar
12.62262084;0.000116;51.9914;312.5227;120.2232;32.9038;9.0318E-5;-8.8E-7;0;Globalstar
12.62262089;0.0001165;51.9913;310.6438;121.1464;317.208;7.5608E-5;-9.0E-7;0;Globalstar
12.62262098;0.0001169;51.9913;309.8702;121.4005;32.0608;8.7895E-5;-8.8E-7;0;Globalstar
12.62262145;0.0001182;51.9911;307.2527;123.0551;338.402;0.00010502;-8.5E-7;0;Globalstar
12.62262234;0.0001184;51.991;305.3715;123.9254;266.2155;0.00016487;-7.4E-7;0;Globalstar
12.62262246;0.0001191;51.9909;304.1371;124.6964;308.2013;0.00016823;-7.4E-7;0;Globalstar
12.62262242;0.0001198;51.9909;303.6264;125.1973;350.3347;0.0001646;-7.4E-7;0;Globalstar
12.62262262;0.0001205;51.9909;302.4798;125.9577;261.3624;0.00016947;-7.3E-7;0;Globalstar
12.62262234;0.0001213;51.9908;301.2061;126.9498;1.8914;0.00014764;-7.7E-7;0;Globalstar
12.62262364;0.0001222;51.9907;298.0998;128.6023;317.9741;0.00022427;-6.4E-7;0;Globalstar
12.62262399;0.0001219;51.9906;296.2044;129.7063;266.6552;0.00022483;-6.3E-7;0;Globalstar
12.62262403;0.0001218;51.9906;294.9204;130.272;22.8905;0.00022635;-6.3E-7;0;Globalstar
12.62262413;0.0001225;51.9905;292.5455;131.9018;326.955;0.00016943;-7.3E-7;0;Globalstar
12.62262393;0.0001226;51.9905;292.0335;132.1865;11.123;0.00014817;-7.7E-7;0;Globalstar
12.62262355;0.0001211;51.9909;288.8926;135.5104;16.9428;1.5883E-6;-1.03E-6;0;Globalstar
12.62262377;0.0001208;51.9909;287.0319;136.6555;273.783;2.1616E-5;-1.0E-6;0;Globalstar
12.62262407;0.0001228;51.9903;286.0009;136.1789;13.5451;2.8317E-5;-9.9E-7;0;Globalstar
12.62262473;0.0001226;51.9903;283.3933;137.97;304.8897;4.2915E-5;-9.6E-7;0;Globalstar
12.62262463;0.0001228;51.9903;283.1392;138.2133;324.0698;3.1962E-5;-9.8E-7;0;Globalstar
12.6226252;0.0001228;51.9902;281.2721;139.703;230.1871;5.2512E-5;-9.4E-7;0;Globalstar
12.62262536;0.0001236;51.9902;280.5023;140.5757;298.4625;4.0953E-5;-9.6E-7;0;Globalstar
12.62262528;0.0001235;51.9902;278.1313;142.3771;236.575;1.0224E-5;-1.02E-6;0;Globalstar
12.62262576;0.0001246;51.9901;277.1108;143.5117;319.0196;3.4331E-5;-9.8E-7;0;Globalstar
12.62262604;0.000124;51.9901;276.5823;143.5103;27.9305;5.1547E-5;-9.5E-7;0;Globalstar
12.62262665;0.0001243;51.99;272.0857;147.4641;257.225;7.4298E-5;-9.0E-7;0;Globalstar
12.62262652;0.0001235;51.99;271.0824;147.9074;314.7772;8.0992E-5;-8.9E-7;0;Globalstar
12.62262652;0.0001242;51.99;268.9578;150.1083;244.4993;7.6242E-5;-9.0E-7;0;Globalstar
12.62262628;0.0001239;51.99;268.4122;150.3661;338.6622;6.4045E-5;-9.2E-7;0;Globalstar
12.62262662;0.0001228;51.99;265.5229;152.757;329.8524;9.8028E-5;-8.6E-7;0;Globalstar
12.62262702;0.0001225;51.99;262.4174;155.955;283.055;0.0001224;-8.2E-7;0;Globalstar
12.62262702;0.0001217;51.9901;259.0251;159.0891;304.4527;0.00011201;-8.4E-7;0;Globalstar
12.62262751;0.0001215;51.9902;255.6385;162.5338;317.0206;0.00010337;-8.5E-7;0;Globalstar
12.62262761;0.0001206;51.9903;252.4915;165.7861;332.3761;5.2199E-5;-9.4E-7;0;Globalstar
12.62262784;0.0001203;51.9903;252.2372;166.1669;351.6382;6.0177E-5;-9.3E-7;0;Globalstar
12.62262766;0.0001195;51.9903;249.6318;168.77;279.0558;3.2455E-6;-1.03E-6;0;Globalstar
12.62262733;0.0001189;51.9903;247.4693;170.9389;265.4635;-5.5776E-5;-1.14E-6;0;Globalstar
12.62262746;0.0001183;51.9903;246.7433;171.4675;268.9705;-4.2043E-5;-1.11E-6;0;Globalstar
12.6226273;0.0001168;51.9903;243.322;174.8672;333.6527;-7.6181E-5;-1.17E-6;0;Globalstar
12.62262724;0.0001161;51.9903;240.7142;177.6312;264.4906;-6.5066E-5;-1.15E-6;0;Globalstar
12.6226271;0.0001155;51.9903;238.3046;180.3039;259.442;-6.4634E-5;-1.15E-6;0;Globalstar
12.6226272;0.000115;51.9903;237.2939;181.5811;327.1908;-3.8869E-5;-1.11E-6;0;Globalstar
12.62262724;0.0001139;51.9903;234.4062;184.9404;315.3808;1.24E-5;-1.02E-6;0;Globalstar
12.62262748;0.0001134;51.9904;231.2655;188.6876;320.7573;6.7155E-5;-9.2E-7;0;Globalstar
12.62262753;0.0001129;51.9904;228.8636;191.4531;304.046;9.9286E-5;-8.6E-7;0;Globalstar
12.62262767;0.000113;51.9905;226.2487;194.7206;244.9945;0.0001017;-8.6E-7;0;Globalstar
12.62262784;0.0001127;51.9905;225.9914;194.8839;269.0298;0.00012275;-8.2E-7;0;Globalstar
12.62262766;0.0001125;51.9905;225.7209;195.2632;312.645;0.00010797;-8.4E-7;0;Globalstar
12.62262771;0.0001121;51.9906;223.3575;198.043;238.6532;8.7343E-5;-8.8E-7;0;Globalstar
12.62262845;0.0001118;51.9906;220.4898;201.5952;196.8018;9.397E-5;-8.7E-7;0;Globalstar
12.62262838;0.0001116;51.9906;219.9642;202.1788;261.0168;9.0712E-5;-8.8E-7;0;Globalstar
12.62262919;0.0001114;51.9906;217.0942;205.688;222.6599;8.5454E-5;-8.8E-7;0;Globalstar
12.62262958;0.0001109;51.9906;216.0678;207.0172;313.8263;9.3718E-5;-8.7E-7;0;Globalstar
12.6226299;0.0001117;51.9905;213.9365;209.7488;253.3302;7.4944E-5;-9.0E-7;0;Globalstar
12.62263028;0.0001113;51.9905;213.1818;210.7164;299.2326;8.6428E-5;-8.8E-7;0;Globalstar
12.62263045;0.0001116;51.9904;210.2941;214.3448;287.3522;5.4868E-5;-9.4E-7;0;Globalstar
12.62263063;0.0001119;51.9904;207.154;218.3903;291.8433;3.4263E-5;-9.8E-7;0;Globalstar
12.6226305;0.0001117;51.9903;204.7714;221.0913;246.4497;3.6335E-5;-9.7E-7;0;Globalstar
12.62263029;0.0001115;51.9902;202.8911;223.6121;171.4294;2.0563E-5;-1.0E-6;0;Globalstar
12.62263041;0.0001117;51.9901;201.8819;224.6886;237.0649;3.9072E-5;-9.7E-7;0;Globalstar
12.62263061;0.0001118;51.99;199.7677;227.4049;150.9852;7.6933E-5;-9.0E-7;0;Globalstar
12.62263065;0.0001117;51.99;198.7433;228.7104;239.2716;9.4799E-5;-8.7E-7;0;Globalstar
12.62263068;0.0001117;51.99;197.5775;230.3621;178.2222;9.6019E-5;-8.7E-7;0;Globalstar
12.62263087;0.0001123;51.9899;195.8543;232.4263;229.0013;0.00012993;-8.0E-7;0;Globalstar
12.62263158;0.0001129;51.9898;192.7305;236.5148;208.9176;0.00019243;-6.9E-7;0;Globalstar
12.6226316;0.0001128;51.9898;192.4364;236.9689;287.5852;0.00019289;-6.9E-7;0;Globalstar
12.62263159;0.0001129;51.9898;192.2099;237.3519;265.2933;0.00018808;-7.0E-7;0;Globalstar
12.62263222;0.0001144;51.9897;189.0687;241.5242;271.0702;0.00020404;-6.7E-7;0;Globalstar
12.62263267;0.0001156;51.9896;186.1814;245.1615;258.3453;0.00018796;-7.0E-7;0;Globalstar
12.62263284;0.0001165;51.9896;184.8192;246.9411;130.3266;0.00017038;-7.3E-7;0;Globalstar
12.62263296;0.0001167;51.9895;183.0394;249.3422;265.3276;0.0001372;-7.9E-7;0;Globalstar
12.62263322;0.0001174;51.9895;181.6839;250.9013;127.5837;0.00012873;-8.1E-7;0;Globalstar
12.62263342;0.0001183;51.9894;178.5381;254.6552;140.7915;5.6123E-5;-9.4E-7;0;Globalstar
12.6226335;0.000118;51.9893;177.0102;256.5402;260.0818;4.0088E-5;-9.7E-7;0;Globalstar
12.62263355;0.0001191;51.9892;174.8969;259.1091;172.8069;1.3765E-5;-1.01E-6;0;Globalstar
12.6226337;0.0001193;51.9891;174.1251;260.3055;243.8796;1.8806E-5;-1.0E-6;0;Globalstar
12.62263395;0.0001203;51.989;171.5051;263.436;192.4347;2.5431E-5;-9.9E-7;0;Globalstar
12.62263392;0.0001203;51.989;171.237;263.8248;232.2751;1.9591E-5;-1.0E-6;0;Globalstar
12.62263396;0.0001204;51.989;170.9839;264.1591;249.8214;1.7202E-5;-1.01E-6;0;Globalstar
12.62263415;0.0001214;51.9888;168.3566;267.5315;209.0821;4.2918E-5;-9.6E-7;0;Globalstar
12.62263418;0.0001215;51.9888;168.0908;267.8815;245.5207;4.3137E-5;-9.6E-7;0;Globalstar
12.62263461;0.0001232;51.9887;164.9558;271.9895;241.931;9.289E-5;-8.7E-7;0;Globalstar
12.62263473;0.0001242;51.9886;162.0634;275.6429;236.4581;0.0001256;-8.1E-7;0;Globalstar
12.62263482;0.0001251;51.9886;160.1864;277.7401;156.6497;0.00012867;-8.1E-7;0;Globalstar
12.62263498;0.0001257;51.9886;159.1801;279.2756;217.5296;0.00015321;-7.6E-7;0;Globalstar
12.62263503;0.0001267;51.9886;157.0489;281.6216;156.9981;0.00014024;-7.9E-7;0;Globalstar
12.62263521;0.0001273;51.9886;156.0349;282.8558;229.5684;0.00015368;-7.6E-7;0;Globalstar
12.6226355;0.0001286;51.9886;153.1296;286.1925;243.7346;0.00014007;-7.9E-7;0;Globalstar
12.62263566;0.0001297;51.9887;151.0205;288.4392;150.2995;0.00010411;-8.5E-7;0;Globalstar
12.62263577;0.0001314;51.9887;148.1513;291.8302;110.6188;5.2086E-5;-9.4E-7;0;Globalstar
12.62263594;0.0001319;51.9887;147.1242;293.0958;202.8567;5.3615E-5;-9.4E-7;0;Globalstar
12.62263587;0.0001331;51.9887;144.2427;296.2596;181.5889;-9.4361E-6;-1.05E-6;0;Globalstar
12.62263585;0.0001333;51.9887;143.9791;296.6574;214.8302;-1.8883E-5;-1.07E-6;0;Globalstar
12.62263587;0.0001346;51.9887;141.0957;299.895;196.4189;-5.2276E-5;-1.13E-6;0;Globalstar
